{
  "links" : {
    "next" : "https://api.nasa.gov/neo/rest/v1/feed?start_date=2013-06-23&end_date=2013-06-23&detailed=true&api_key=t0TVs3DtDT2H8Oy2Zy8m2eVrNsAVKAexjcZXUckd",
    "prev" : "https://api.nasa.gov/neo/rest/v1/feed?start_date=2013-06-21&end_date=2013-06-21&detailed=true&api_key=t0TVs3DtDT2H8Oy2Zy8m2eVrNsAVKAexjcZXUckd",
    "self" : "https://api.nasa.gov/neo/rest/v1/feed?start_date=2013-06-22&end_date=2013-06-22&detailed=true&api_key=t0TVs3DtDT2H8Oy2Zy8m2eVrNsAVKAexjcZXUckd"
  },
  "element_count" : 2,
  "near_earth_objects" : {
    "2013-06-22" : [ {
      "links" : {
        "self" : "https://api.nasa.gov/neo/rest/v1/neo/3261401?api_key=t0TVs3DtDT2H8Oy2Zy8m2eVrNsAVKAexjcZXUckd"
      },
      "neo_reference_id" : "3261401",
      "name" : "(2004 VZ)",
      "nasa_jpl_url" : "http://ssd.jpl.nasa.gov/sbdb.cgi?sstr=3261401",
      "absolute_magnitude_h" : 24.6,
      "estimated_diameter" : {
        "kilometers" : {
          "estimated_diameter_min" : 0.0319561887,
          "estimated_diameter_max" : 0.0714562102
        },
        "meters" : {
          "estimated_diameter_min" : 31.9561886721,
          "estimated_diameter_max" : 71.4562101727
        },
        "miles" : {
          "estimated_diameter_min" : 0.0198566489,
          "estimated_diameter_max" : 0.0444008168
        },
        "feet" : {
          "estimated_diameter_min" : 104.8431420431,
          "estimated_diameter_max" : 234.436392583
        }
      },
      "is_potentially_hazardous_asteroid" : false,
      "close_approach_data" : [ {
        "close_approach_date" : "2013-06-22",
        "epoch_date_close_approach" : 1371884400000,
        "relative_velocity" : {
          "kilometers_per_second" : "14.0825086588",
          "kilometers_per_hour" : "50697.0311716444",
          "miles_per_hour" : "31501.1636188476"
        },
        "miss_distance" : {
          "astronomical" : "0.2522228099",
          "lunar" : "98.1146697998",
          "kilometers" : "37731996",
          "miles" : "23445574"
        },
        "orbiting_body" : "Earth"
      } ],
      "orbital_data" : {
        "orbit_id" : "9",
        "orbit_determination_date" : "2017-04-06 09:11:55",
        "orbit_uncertainty" : "7",
        "minimum_orbit_intersection" : ".00398015",
        "jupiter_tisserand_invariant" : "6.323",
        "epoch_osculation" : "2458000.5",
        "eccentricity" : ".2438929945052555",
        "semi_major_axis" : ".9406831317533808",
        "inclination" : "16.20878050888338",
        "ascending_node_longitude" : "225.7771256196328",
        "orbital_period" : "333.2448614410724",
        "perihelion_distance" : ".711257105869467",
        "perihelion_argument" : "297.0989132528018",
        "aphelion_distance" : "1.170109157637295",
        "perihelion_time" : "2458066.341954660832",
        "mean_anomaly" : "288.8718104297286",
        "mean_motion" : "1.080286725032244",
        "equinox" : "J2000"
      }
    }, {
      "links" : {
        "self" : "https://api.nasa.gov/neo/rest/v1/neo/3430491?api_key=t0TVs3DtDT2H8Oy2Zy8m2eVrNsAVKAexjcZXUckd"
      },
      "neo_reference_id" : "3430491",
      "name" : "(2008 TN26)",
      "nasa_jpl_url" : "http://ssd.jpl.nasa.gov/sbdb.cgi?sstr=3430491",
      "absolute_magnitude_h" : 20.1,
      "estimated_diameter" : {
        "kilometers" : {
          "estimated_diameter_min" : 0.2538370294,
          "estimated_diameter_max" : 0.5675968529
        },
        "meters" : {
          "estimated_diameter_min" : 253.8370293645,
          "estimated_diameter_max" : 567.5968528656
        },
        "miles" : {
          "estimated_diameter_min" : 0.1577269688,
          "estimated_diameter_max" : 0.3526882241
        },
        "feet" : {
          "estimated_diameter_min" : 832.7986794202,
          "estimated_diameter_max" : 1862.1944587557
        }
      },
      "is_potentially_hazardous_asteroid" : false,
      "close_approach_data" : [ {
        "close_approach_date" : "2013-06-22",
        "epoch_date_close_approach" : 1371884400000,
        "relative_velocity" : {
          "kilometers_per_second" : "18.1772514335",
          "kilometers_per_hour" : "65438.1051606724",
          "miles_per_hour" : "40660.6937316411"
        },
        "miss_distance" : {
          "astronomical" : "0.3502484976",
          "lunar" : "136.2466583252",
          "kilometers" : "52396428",
          "miles" : "32557630"
        },
        "orbiting_body" : "Earth"
      } ],
      "orbital_data" : {
        "orbit_id" : "18",
        "orbit_determination_date" : "2017-04-06 09:02:36",
        "orbit_uncertainty" : "1",
        "minimum_orbit_intersection" : ".137282",
        "jupiter_tisserand_invariant" : "3.757",
        "epoch_osculation" : "2458000.5",
        "eccentricity" : ".6331275269353329",
        "semi_major_axis" : "1.824039385686455",
        "inclination" : "9.413143253489231",
        "ascending_node_longitude" : "253.6143434188372",
        "orbital_period" : "899.8077808803521",
        "perihelion_distance" : ".6691898403941459",
        "perihelion_argument" : "22.35299561072733",
        "aphelion_distance" : "2.978888930978764",
        "perihelion_time" : "2458268.920327826085",
        "mean_anomaly" : "252.6089326290904",
        "mean_motion" : ".400085448969761",
        "equinox" : "J2000"
      }
    } ]
  }
}